ONEWEB-0628             
1 55169U 23004AF  25107.39076506 -.00000270  00000+0 -78725-3 0  9998
2 55169  87.8846  75.3583 0002622  93.7603 266.3825 13.12443072112182
ONEWEB-0629             
1 55170U 23004AG  25107.41534370  .00000055  00000+0  10803-3 0  9993
2 55170  87.9042  90.6601 0002364  83.1735 276.9666 13.17648624111517
ONEWEB-0631             
1 55171U 23004AH  25107.35798432  .00000247  00000+0  59444-3 0  9995
2 55171  87.9132  60.0667 0001633  96.3457 263.7861 13.18691096113555
ONEWEB-0709             
1 55172U 23004AJ  25107.54464602 -.00000224  00000+0 -66648-3 0  9997
2 55172  87.8793 105.9436 0001049  98.5183 261.6064 13.11416756110080
ONEWEB-0710             
1 55173U 23004AK  25107.42968038  .00000040  00000+0  70267-4 0  9994
2 55173  87.9017  90.6744 0002094  91.2788 268.8583 13.17649317111516
ONEWEB-0711             
1 55174U 23004AL  25107.43954905  .00000570  00000+0  15711-2 0  9993
2 55174  87.8789 105.9334 0002593 102.1279 258.0140 13.11419495110030
ONEWEB-0713             
1 55175U 23004AM  25107.53448210  .00000234  00000+0  62497-3 0  9993
2 55175  87.8790 105.9218 0002222  94.5316 265.6066 13.11416635110033
ONEWEB-0715             
1 55176U 23004AN  25107.45310604  .00000450  00000+0  12328-2 0  9997
2 55176  87.8792 105.9382 0001718  96.8831 263.2493 13.11414176110063
